[{"OBJECT_NAME":"STARLINK-11409 [DTC]","OBJECT_ID":"2025-035K","EPOCH":"2026-03-09T05:03:45.496800","MEAN_MOTION":15.70924903,"ECCENTRICITY":0.0001622,"INCLINATION":43,"RA_OF_ASC_NODE":18.3967,"ARG_OF_PERICENTER":283.6837,"MEAN_ANOMALY":76.385,"EPHEMERIS_TYPE":0,"CLASSIFICATION_TYPE":"U","NORAD_CAT_ID":63061,"ELEMENT_SET_NO":999,"REV_AT_EPOCH":6114,"BSTAR":0.0027542899,"MEAN_MOTION_DOT":0.00370501,"MEAN_MOTION_DDOT":0},{"OBJECT_NAME":"ATLAS 2A CENTAUR R\/B","OBJECT_ID":"2000-034B","EPOCH":"2026-03-09T04:10:05.270304","MEAN_MOTION":5.85785777,"ECCENTRICITY":0.48899631,"INCLINATION":26.8394,"RA_OF_ASC_NODE":128.3848,"ARG_OF_PERICENTER":353.5066,"MEAN_ANOMALY":1.9945,"EPHEMERIS_TYPE":0,"CLASSIFICATION_TYPE":"U","NORAD_CAT_ID":26389,"ELEMENT_SET_NO":999,"REV_AT_EPOCH":41204,"BSTAR":0.0013474347,"MEAN_MOTION_DOT":0.00017072,"MEAN_MOTION_DDOT":0}]
